CUTE-1 (CO-55)          
1 27844U 03031E   26197.54116079  .00000131  00000+0  75515-4 0  9991
2 27844  98.6744 205.7314 0010852  99.2116 261.0291 14.24352049195854
CUBESAT XI-IV (CO-57)   
1 27848U 03031J   26197.47409145  .00000105  00000+0  65297-4 0  9993
2 27848  98.6775 205.3542 0010587 115.9860 244.2410 14.23634953195546
CUBESAT XI-V            
1 28895U 05043F   26197.68672259  .00000630  00000+0  10690-3 0  9991
2 28895  98.3017 353.9342 0015305 110.8516 249.4332 14.72704407106096
CUTE-1.7+APD II (CO-65) 
1 32785U 08021C   26197.87798977  .00002444  00000+0  15580-3 0  9998
2 32785  97.8297 179.9231 0006903 292.7093  67.3405 15.09710264989670
CANX-2                  
1 32790U 08021H   26197.46186631  .00001360  00000+0  98258-4 0  9997
2 32790  97.8658 177.8156 0008616 313.1738  46.8768 15.05810340989213
SEEDS II (CO-66)        
1 32791U 08021J   26197.50387267  .00010519  00000+0  32533-3 0  9990
2 32791  97.7523 196.8243 0003211 153.5241 206.6165 15.33693982991787
SWISSCUBE               
1 35932U 09051B   26197.17712107  .00000443  00000+0  97133-4 0  9995
2 35932  98.4006 105.5678 0007887 116.4429 243.7582 14.62531689893398
BEESAT-1                
1 35933U 09051C   26197.68087812  .00000383  00000+0  86615-4 0  9996
2 35933  98.3932 105.6536 0006186 125.9975 234.1800 14.61763234893492
ITUPSAT1                
1 35935U 09051E   26197.69763233  .00000341  00000+0  80333-4 0  9992
2 35935  98.4015 104.8308 0008180 138.8915 221.2902 14.60479971893040
TISAT 1                 
1 36799U 10035E   26197.37356152  .00010605  00000+0  33782-3 0  9997
2 36799  98.0716 146.5388 0004580 117.8384 242.3321 15.32758593872171
STRAND-1                
1 39090U 13009E   26197.43623744  .00000110  00000+0  51462-4 0  9995
2 39090  98.3935  16.9527 0009469 137.7246 222.4672 14.37179260701269
BRITE-AUSTRIA           
1 39091U 13009F   26197.74041470  .00000065  00000+0  36704-4 0  9991
2 39091  98.4009  16.4468 0010847 146.3030 213.8848 14.36552858701290
NEE-01 PEGASO           
1 39151U 13018B   26197.33817934  .00001260  00000+0  12445-3 0  9992
2 39151  98.1258 342.4598 0013667  71.0065 289.2633 14.93791702715055
POPACS 2                
1 39269U 13055E   26196.75443690  .00014540 -92046-6  23703-3 0  9995
2 39269  80.9916 111.4814 0414930 102.0893 262.7124 14.92031396667470
POPACS 3                
1 39270U 13055F   26196.42360878  .00008298  00000+0  19704-3 0  9997
2 39270  80.9990 198.5566 0548749 343.9708  14.4695 14.56665007642662
ZACUBE-1 (TSHEPISOSAT)  
1 39417U 13066B   26197.86752571  .00001271  00000+0  10164-3 0  9991
2 39417  97.8006 160.3502 0044085 149.8632 210.5142 15.01333247685189
WNISAT-1                
1 39423U 13066H   26197.65127389  .00000571  00000+0  11161-3 0  9998
2 39423  97.7237 344.7215 0163959 138.7515 222.6209 14.58121814671021
TRITON-1                
1 39427U 13066M   26197.80601321  .00001126  00000+0  13949-3 0  9995
2 39427  97.8227 106.9367 0090715 136.9174 223.9186 14.81799833678473
GOMX-1                  
1 39430U 13066Q   26197.80535012  .00000663  00000+0  10639-3 0  9990
2 39430  97.6462  36.3989 0128111 343.0273  16.6667 14.69544995674262
CUBEBUG-2 (LO-74)       
1 39440U 13066AA  26197.80263671  .00002156  00000+0  20214-3 0  9999
2 39440  97.8917 146.9130 0055539 289.9004  69.6236 14.93973680681418
NEE-02 KRYSAOR          
1 39441U 13066AB  26197.35207889  .00001071  00000+0  12224-3 0  9996
2 39441  97.8898 136.3620 0065307 335.4659  24.3453 14.86741614680534
FUNCUBE-1 (AO-73)       
1 39444U 13066AE  26197.48559537  .00003947  00000+0  24422-3 0  9990
2 39444  97.8291 169.5530 0037986 103.5264 257.0201 15.09827473684084
UWE-3                   
1 39446U 13066AG  26197.82397772  .00002047  00000+0  17840-3 0  9997
2 39446  97.8716 154.1042 0047571 218.9248 140.8545 14.97205791682010
BRITE-CA1 (TORONTO)     
1 40020U 14033L   26197.79719197  .00000514  00000+0  84822-4 0  9999
2 40020  97.9774 326.1854 0078560 181.1277 178.9766 14.72724378646570
DUCHIFAT-1              
1 40021U 14033M   26197.12557747  .00087055  00000+0  68520-3 0  9999
2 40021  98.0416 260.5020 0002770 239.6355 120.4633 15.71200075660280
NANOSATC-BR1            
1 40024U 14033Q   26197.66411253  .00009688  00000+0  31274-3 0  9994
2 40024  98.0704 232.6831 0005270  92.5850 267.5993 15.32357003658490
QB50P1                  
1 40025U 14033R   26197.60588384  .00004288  00000+0  21031-3 0  9990
2 40025  98.0963 210.8240 0010431 120.5690 239.6573 15.18678566657496
QB50P2                  
1 40032U 14033Y   26197.81483346  .00004129  00000+0  22169-3 0  9990
2 40032  98.0763 196.5493 0009278  79.3830 280.8446 15.15519045657159
PERSEUS-M2              
1 40037U 14033AD  26197.83634696  .00000607  00000+0  60171-4 0  9996
2 40037  97.9987 148.9851 0010971 193.5382 166.5546 14.95593326655219
PERSEUS-M1              
1 40039U 14033AF  26197.80692309  .00000949  00000+0  90612-4 0  9992
2 40039  97.9654 142.4284 0011012 190.7598 169.3388 14.95719308655064
